start=new Date('2022-04-24T00:00:00.000Z').valueOf();
sats=[{"GP_ID":"201880934","ECCENTRICITY":"0.00013270","OBJECT_NAME":"STARLINK-2077","MEAN_ELEMENT_THEORY":"SGP4","TLE_LINE2":"2 47363  53.0544 301.6808 0001327  81.0462 279.0677 15.06405449 69502","COUNTRY_CODE":"US","APOAPSIS":"548.116","SEMIMAJOR_AXIS":"6925.332","REV_AT_EPOCH":"6950","LAUNCH_DATE":"2021-01-20","NORAD_CAT_ID":"47363","OBJECT_ID":"2021-005Q","MEAN_MOTION_DDOT":"0.0000000000000","DECAY_DATE":null,"RA_OF_ASC_NODE":"301.6808","CLASSIFICATION_TYPE":"U","BSTAR":"-0.00006009100000","SITE":"AFETR","CENTER_NAME":"EARTH","TIME_SYSTEM":"UTC","INCLINATION":"53.0544","MEAN_MOTION":"15.06405449","EPOCH":"2022-04-22T22:21:39.286944","TLE_LINE1":"1 47363U 21005Q   22112.93170471 -.00001176  00000-0 -60091-4 0  9998","REF_FRAME":"TEME","OBJECT_TYPE":"PAYLOAD","FILE":"3412883","ELEMENT_SET_NO":"999","EPHEMERIS_TYPE":"0","PERIAPSIS":"546.278","PERIOD":"95.592","RCS_SIZE":"LARGE","MEAN_ANOMALY":"279.0677","MEAN_MOTION_DOT":"-0.00001176","ARG_OF_PERICENTER":"81.0462"},{"TIME_SYSTEM":"UTC","INCLINATION":"53.0333","MEAN_MOTION":"15.76811134","EPOCH":"2022-04-23T10:25:00.021792","TLE_LINE1":"1 47365U 21005S   22113.43402803 -.00006947  00000-0 -38156-4 0  9991","REF_FRAME":"TEME","OBJECT_TYPE":"PAYLOAD","FILE":"3412883","ELEMENT_SET_NO":"999","PERIAPSIS":"334.026","EPHEMERIS_TYPE":"0","PERIOD":"91.324","RCS_SIZE":"LARGE","MEAN_ANOMALY":"81.0108","MEAN_MOTION_DOT":"-0.00006947","ARG_OF_PERICENTER":"278.9991","GP_ID":"201881185","ECCENTRICITY":"0.00081250","TLE_LINE2":"2 47365  53.0333 104.5396 0008125 278.9991  81.0108 15.76811134 72300","OBJECT_NAME":"STARLINK-2080","MEAN_ELEMENT_THEORY":"SGP4","APOAPSIS":"344.942","COUNTRY_CODE":"US","SEMIMAJOR_AXIS":"6717.619","REV_AT_EPOCH":"7230","LAUNCH_DATE":"2021-01-20","NORAD_CAT_ID":"47365","OBJECT_ID":"2021-005S","MEAN_MOTION_DDOT":"0.0000000000000","BSTAR":"-0.00003815600000","CLASSIFICATION_TYPE":"U","DECAY_DATE":null,"RA_OF_ASC_NODE":"104.5396","SITE":"AFETR","CENTER_NAME":"EARTH"},{"ARG_OF_PERICENTER":"66.1001","MEAN_MOTION_DOT":"-0.00002950","MEAN_ANOMALY":"294.0161","RCS_SIZE":"LARGE","PERIOD":"95.592","PERIAPSIS":"546.044","EPHEMERIS_TYPE":"0","FILE":"3412883","ELEMENT_SET_NO":"999","OBJECT_TYPE":"PAYLOAD","REF_FRAME":"TEME","TLE_LINE1":"1 47366U 21005T   22113.48828053 -.00002950  00000-0 -17919-3 0  9999","EPOCH":"2022-04-23T11:43:07.437792","MEAN_MOTION":"15.06407523","INCLINATION":"53.0548","TIME_SYSTEM":"UTC","CENTER_NAME":"EARTH","SITE":"AFETR","BSTAR":"-0.00017919000000","CLASSIFICATION_TYPE":"U","RA_OF_ASC_NODE":"299.1990","DECAY_DATE":null,"MEAN_MOTION_DDOT":"0.0000000000000","OBJECT_ID":"2021-005T","LAUNCH_DATE":"2021-01-20","NORAD_CAT_ID":"47366","REV_AT_EPOCH":"6958","SEMIMAJOR_AXIS":"6925.326","APOAPSIS":"548.337","COUNTRY_CODE":"US","TLE_LINE2":"2 47366  53.0548 299.1990 0001655  66.1001 294.0161 15.06407523 69587","MEAN_ELEMENT_THEORY":"SGP4","OBJECT_NAME":"STARLINK-2081","GP_ID":"201881935","ECCENTRICITY":"0.00016550"},{"ECCENTRICITY":"0.00017350","GP_ID":"201880185","TLE_LINE2":"2 47367  53.0544 299.0883 0001735  59.3121 300.8039 15.06396462 69590","MEAN_ELEMENT_THEORY":"SGP4","OBJECT_NAME":"STARLINK-2082","APOAPSIS":"548.426","COUNTRY_CODE":"US","SEMIMAJOR_AXIS":"6925.359","REV_AT_EPOCH":"6959","LAUNCH_DATE":"2021-01-20","NORAD_CAT_ID":"47367","OBJECT_ID":"2021-005U","MEAN_MOTION_DDOT":"0.0000000000000","CLASSIFICATION_TYPE":"U","BSTAR":"0.00001326900000","DECAY_DATE":null,"RA_OF_ASC_NODE":"299.0883","SITE":"AFETR","CENTER_NAME":"EARTH","TIME_SYSTEM":"UTC","INCLINATION":"53.0544","MEAN_MOTION":"15.06396462","EPOCH":"2022-04-23T12:20:16.953504","TLE_LINE1":"1 47367U 21005U   22113.51408511 -.00000084  00000-0  13269-4 0  9997","REF_FRAME":"TEME","OBJECT_TYPE":"PAYLOAD","ELEMENT_SET_NO":"999","FILE":"3412883","PERIAPSIS":"546.023","EPHEMERIS_TYPE":"0","PERIOD":"95.592","RCS_SIZE":"LARGE","MEAN_ANOMALY":"300.8039","MEAN_MOTION_DOT":"-0.00000084","ARG_OF_PERICENTER":"59.3121"},{"REF_FRAME":"TEME","TLE_LINE1":"1 47368U 21005V   22113.50671315  .00000181  00000-0  31038-4 0  9992","EPOCH":"2022-04-23T12:09:40.016160","MEAN_MOTION":"15.06398801","INCLINATION":"53.0532","TIME_SYSTEM":"UTC","ARG_OF_PERICENTER":"70.6328","MEAN_ANOMALY":"289.4830","MEAN_MOTION_DOT":"0.00000181","RCS_SIZE":"LARGE","PERIOD":"95.592","EPHEMERIS_TYPE":"0","PERIAPSIS":"546.131","ELEMENT_SET_NO":"999","FILE":"3412883","OBJECT_TYPE":"PAYLOAD","APOAPSIS":"548.304","COUNTRY_CODE":"US","OBJECT_NAME":"STARLINK-2084","MEAN_ELEMENT_THEORY":"SGP4","TLE_LINE2":"2 47368  53.0532 299.1039 0001569  70.6328 289.4830 15.06398801 69592","ECCENTRICITY":"0.00015690","GP_ID":"201880435","CENTER_NAME":"EARTH","SITE":"AFETR","RA_OF_ASC_NODE":"299.1039","DECAY_DATE":null,"BSTAR":"0.00003103800000","CLASSIFICATION_TYPE":"U","MEAN_MOTION_DDOT":"0.0000000000000","OBJECT_ID":"2021-005V","LAUNCH_DATE":"2021-01-20","NORAD_CAT_ID":"47368","REV_AT_EPOCH":"6959","SEMIMAJOR_AXIS":"6925.352"},{"PERIAPSIS":"546.212","EPHEMERIS_TYPE":"0","FILE":"3413108","ELEMENT_SET_NO":"999","OBJECT_TYPE":"PAYLOAD","ARG_OF_PERICENTER":"67.3918","MEAN_MOTION_DOT":"0.00001318","MEAN_ANOMALY":"292.7231","RCS_SIZE":"LARGE","PERIOD":"95.593","MEAN_MOTION":"15.06384837","INCLINATION":"53.0529","TIME_SYSTEM":"UTC","REF_FRAME":"TEME","TLE_LINE1":"1 47369U 21005W   22113.77763646  .00001318  00000-0  10740-3 0  9990","EPOCH":"2022-04-23T18:39:47.790144","OBJECT_ID":"2021-005W","LAUNCH_DATE":"2021-01-20","NORAD_CAT_ID":"47369","REV_AT_EPOCH":"7087","SEMIMAJOR_AXIS":"6925.395","CENTER_NAME":"EARTH","SITE":"AFETR","BSTAR":"0.00010740000000","CLASSIFICATION_TYPE":"U","RA_OF_ASC_NODE":"277.9042","DECAY_DATE":null,"MEAN_MOTION_DDOT":"0.0000000000000","GP_ID":"201889966","ECCENTRICITY":"0.00015140","APOAPSIS":"548.309","COUNTRY_CODE":"US","TLE_LINE2":"2 47369  53.0529 277.9042 0001514  67.3918 292.7231 15.06384837 70874","OBJECT_NAME":"STARLINK-2085","MEAN_ELEMENT_THEORY":"SGP4"},{"INCLINATION":"53.0550","TIME_SYSTEM":"UTC","MEAN_MOTION":"15.06396628","EPOCH":"2022-04-23T19:14:17.238624","REF_FRAME":"TEME","TLE_LINE1":"1 47370U 21005X   22113.80158841  .00000748  00000-0  69152-4 0  9999","FILE":"3412999","ELEMENT_SET_NO":"999","OBJECT_TYPE":"PAYLOAD","PERIAPSIS":"545.352","EPHEMERIS_TYPE":"0","RCS_SIZE":"LARGE","PERIOD":"95.592","ARG_OF_PERICENTER":"37.7075","MEAN_ANOMALY":"322.4103","MEAN_MOTION_DOT":"0.00000748","GP_ID":"201887158","ECCENTRICITY":"0.00027030","APOAPSIS":"549.096","COUNTRY_CODE":"US","TLE_LINE2":"2 47370  53.0550 257.7967 0002703  37.7075 322.4103 15.06396628 70205","MEAN_ELEMENT_THEORY":"SGP4","OBJECT_NAME":"STARLINK-2086","REV_AT_EPOCH":"7020","SEMIMAJOR_AXIS":"6925.359","OBJECT_ID":"2021-005X","NORAD_CAT_ID":"47370","LAUNCH_DATE":"2021-01-20","CLASSIFICATION_TYPE":"U","BSTAR":"0.00006915200000","RA_OF_ASC_NODE":"257.7967","DECAY_DATE":null,"MEAN_MOTION_DDOT":"0.0000000000000","CENTER_NAME":"EARTH","SITE":"AFETR"},{"TIME_SYSTEM":"UTC","INCLINATION":"53.0544","MEAN_MOTION":"15.06398578","EPOCH":"2022-04-23T14:06:25.987392","TLE_LINE1":"1 47371U 21005Y   22113.58780078  .00001252  00000-0  10294-3 0  9991","REF_FRAME":"TEME","OBJECT_TYPE":"PAYLOAD","ELEMENT_SET_NO":"999","FILE":"3412883","PERIAPSIS":"546.231","EPHEMERIS_TYPE":"0","PERIOD":"95.592","RCS_SIZE":"LARGE","MEAN_MOTION_DOT":"0.00001252","MEAN_ANOMALY":"292.5738","ARG_OF_PERICENTER":"67.5402","ECCENTRICITY":"0.00014250","GP_ID":"201880685","TLE_LINE2":"2 47371  53.0544 298.7490 0001425  67.5402 292.5738 15.06398578 69609","OBJECT_NAME":"STARLINK-2088","MEAN_ELEMENT_THEORY":"SGP4","COUNTRY_CODE":"US","APOAPSIS":"548.205","SEMIMAJOR_AXIS":"6925.353","REV_AT_EPOCH":"6960","NORAD_CAT_ID":"47371","LAUNCH_DATE":"2021-01-20","OBJECT_ID":"2021-005Y","MEAN_MOTION_DDOT":"0.0000000000000","BSTAR":"0.00010294000000","CLASSIFICATION_TYPE":"U","RA_OF_ASC_NODE":"298.7490","DECAY_DATE":null,"SITE":"AFETR","CENTER_NAME":"EARTH"},{"ECCENTRICITY":"0.00012420","GP_ID":"201890260","TLE_LINE2":"2 47372  53.0542 293.0041 0001242  75.3512 284.7615 15.06389921 69692","MEAN_ELEMENT_THEORY":"SGP4","OBJECT_NAME":"STARLINK-2089","APOAPSIS":"548.105","COUNTRY_CODE":"US","SEMIMAJOR_AXIS":"6925.379","REV_AT_EPOCH":"6969","LAUNCH_DATE":"2021-01-20","NORAD_CAT_ID":"47372","OBJECT_ID":"2021-005Z","MEAN_MOTION_DDOT":"0.0000000000000","BSTAR":"-0.00007892500000","CLASSIFICATION_TYPE":"U","DECAY_DATE":null,"RA_OF_ASC_NODE":"293.0041","SITE":"AFETR","CENTER_NAME":"EARTH","TIME_SYSTEM":"UTC","INCLINATION":"53.0542","MEAN_MOTION":"15.06389921","EPOCH":"2022-04-23T18:01:56.831808","TLE_LINE1":"1 47372U 21005Z   22113.75135222 -.00001456  00000-0 -78925-4 0  9990","REF_FRAME":"TEME","OBJECT_TYPE":"PAYLOAD","FILE":"3413127","ELEMENT_SET_NO":"999","PERIAPSIS":"546.384","EPHEMERIS_TYPE":"0","PERIOD":"95.593","RCS_SIZE":"LARGE","MEAN_MOTION_DOT":"-0.00001456","MEAN_ANOMALY":"284.7615","ARG_OF_PERICENTER":"75.3512"},{"APOAPSIS":"548.306","COUNTRY_CODE":"US","TLE_LINE2":"2 47373  53.0543 297.8592 0001533  68.2202 291.8949 15.06390030 69633","MEAN_ELEMENT_THEORY":"SGP4","OBJECT_NAME":"STARLINK-2092","ECCENTRICITY":"0.00015330","GP_ID":"201887161","BSTAR":"-0.00006462900000","CLASSIFICATION_TYPE":"U","DECAY_DATE":null,"RA_OF_ASC_NODE":"297.8592","MEAN_MOTION_DDOT":"0.0000000000000","CENTER_NAME":"EARTH","SITE":"AFETR","REV_AT_EPOCH":"6963","SEMIMAJOR_AXIS":"6925.379","OBJECT_ID":"2021-005AA","LAUNCH_DATE":"2021-01-20","NORAD_CAT_ID":"47373","EPOCH":"2022-04-23T18:47:45.011040","REF_FRAME":"TEME","TLE_LINE1":"1 47373U 21005AA  22113.78315985 -.00001244  00000-0 -64629-4 0  9991","INCLINATION":"53.0543","TIME_SYSTEM":"UTC","MEAN_MOTION":"15.06390030","RCS_SIZE":"LARGE","PERIOD":"95.593","ARG_OF_PERICENTER":"68.2202","MEAN_ANOMALY":"291.8949","MEAN_MOTION_DOT":"-0.00001244","ELEMENT_SET_NO":"999","FILE":"3412999","OBJECT_TYPE":"PAYLOAD","PERIAPSIS":"546.182","EPHEMERIS_TYPE":"0"}];
